STARLINK-37006          
1 68187U 26050W   26091.68581500  .00208003  00000+0  10284-2 0  9993
2 68187  53.1591 166.4184 0001369  69.2811 290.8358 15.80953041  4119
STARLINK-36340          
1 68188U 26050X   26091.68506270  .00282260  00000+0  13802-2 0  9991
2 68188  53.1588 166.4137 0001107  51.7394 308.3729 15.80985729  4010
STARLINK-36305          
1 68189U 26050Y   26091.68430899  .00306490  00000+0  14926-2 0  9995
2 68189  53.1587 166.4088 0000968  74.2909 285.8220 15.81007983  4014
STARLINK-37071          
1 68190U 26050Z   26091.68281262  .00271897  00000+0  13315-2 0  9998
2 68190  53.1587 166.3986 0001368 128.7159 231.3986 15.80982488  4116
STARLINK-37091          
1 68191U 26050AA  26091.68206125  .00303680  00000+0  14804-2 0  9994
2 68191  53.1587 166.3930 0000762  64.7696 295.3405 15.80993175  4119
STARLINK-37098          
1 68192U 26050AB  26091.68131303  .00269180  00000+0  13190-2 0  9993
2 68192  53.1585 166.3883 0001066  88.3429 271.7716 15.80976286  4116
STARLINK-37090          
1 68193U 26050AC  26091.67981102  .00337199  00000+0  16357-2 0  9997
2 68193  53.1584 166.3773 0000900  80.4569 279.6555 15.81010303  4116
STARLINK-37093          
1 68194U 26050AD  26091.68356442  .00255979  00000+0  12566-2 0  9995
2 68194  53.1589 166.4028 0001602  70.0880 290.0315 15.80972196  4114
STARLINK-37058          
1 68195U 26050AE  26091.68056274  .00185351  00000+0  91953-3 0  9990
2 68195  53.1588 166.3827 0000966  90.9071 269.2062 15.80945422  2550
CZ-6A R/B               
1 68197U 26051B   26091.89087120  .00001146  00000+0  14892-3 0  9996
2 68197 142.0311 328.6337 0187114 218.1356 140.5997 14.56378203  2540
2026-052A               
1 68198U 26052A   26091.85200037  .00007185  00000+0  44518-3 0  9995
2 68198  97.5366 167.8338 0013387 203.5305 156.5313 15.09993289  2524
YUXING-3 06             
1 68199U 26052B   26091.71774984  .00004899  00000+0  30373-3 0  9991
2 68199  97.5367 167.7051 0012372 205.3060 154.7565 15.10142718  2500
2026-052C               
1 68200U 26052C   26091.84884571  .00004578  00000+0  28320-3 0  9995
2 68200  97.5362 167.8387 0012126 207.3620 152.6972 15.10262192  2511
2026-052D               
1 68201U 26052D   26091.84684963  .00006282  00000+0  38471-3 0  9991
2 68201  97.5360 167.8383 0011354 203.9057 156.1646 15.10489992  2521
2026-052E               
1 68202U 26052E   26091.84683017  .00006861  00000+0  41980-3 0  9993
2 68202  97.5362 167.8406 0011140 208.0775 151.9855 15.10490385  2529
2026-052F               
1 68203U 26052F   26091.84404311  .00007305  00000+0  44366-3 0  9997
2 68203  97.5354 167.8470 0010424 200.4623 159.6191 15.10747075  2523
